SL-3 R/B                
1 19046U 88032B   26071.62927789  .00006465  00000+0  30147-3 0  9995
2 19046  97.5196  54.8698 0024668 220.6322 139.3072 15.19948054 52550
SL-16 R/B               
1 19120U 88039B   26071.37603779  .00000117  00000+0  78137-4 0  9997
2 19120  71.0137  62.8667 0022936 330.4756  29.5073 14.19615873958765
COSMOS 1953             
1 19210U 88050A   26071.63694826  .00008876  00000+0  31737-3 0  9996
2 19210  82.5103 155.2835 0012541 113.3425 246.9135 15.28581721 38231
SL-8 R/B                
1 19257U 88053B   26071.58686132  .00000304  00000+0  10685-3 0  9992
2 19257  74.0456 107.1257 0021473 286.0145 188.5505 14.38917770977011
COSMOS 1975             
1 19573U 88093A   26071.60607531  .00007180  00000+0  26024-3 0  9999
2 19573  82.5183 114.7575 0012413 153.5264 206.6612 15.28114295 19855
SL-14 R/B               
1 19574U 88093B   26071.43503709  .00000749  00000+0  83340-4 0  9992
2 19574  82.5309  39.4663 0021577  32.8451  88.9894 14.85660630  1423
SL-16 R/B               
1 19650U 88102B   26071.58905490  .00000281  00000+0  16592-3 0  9992
2 19650  70.9999 145.3973 0014158 357.0827   3.0211 14.16154064927309
INTERCOSMOS 24          
1 20261U 89080A   26071.58257779  .00000833  00000+0  24814-3 0  9997
2 20261  82.6021 102.5200 1186682 286.0994  61.2826 12.59562801667162
SL-14 R/B               
1 20262U 89080C   26071.67660505  .00000701  00000+0  20608-3 0  9994
2 20262  82.5974 171.2695 1230662 177.9234 182.7712 12.50498270660528
DELTA 1 R/B             
1 20323U 89089B   26071.58680242  .00000412  00000+0  11020-3 0  9998
2 20323  97.0704 278.5648 0070581 112.9989 247.8674 14.50665673896159
ARIANE 40 R/B           
1 20443U 90005H   26071.59317329  .00000324  00000+0  11657-3 0  9993
2 20443  98.3078 132.1681 0010025 189.5582 170.5417 14.39872729893229
DELTA 2 R/B(1)          
1 20453U 90008B   26071.58229221  .00068711  00000+0  79308-3 0  9990
2 20453  35.6032 155.8638 0084468 285.3867  73.7550 15.56385855926588
